[{"OBJECT_NAME":"OBJECT AD","OBJECT_ID":"2023-085AD","EPOCH":"2026-03-09T21:41:29.115744","MEAN_MOTION":15.31779154,"ECCENTRICITY":0.00101154,"INCLINATION":97.4841,"RA_OF_ASC_NODE":180.2223,"ARG_OF_PERICENTER":77.5993,"MEAN_ANOMALY":282.638,"EPHEMERIS_TYPE":0,"CLASSIFICATION_TYPE":"U","NORAD_CAT_ID":57031,"ELEMENT_SET_NO":999,"REV_AT_EPOCH":15156,"BSTAR":0.00068352515,"MEAN_MOTION_DOT":0.00020961,"MEAN_MOTION_DDOT":0},{"OBJECT_NAME":"STARLINK-31346","OBJECT_ID":"2024-027N","EPOCH":"2026-03-09T23:25:16.023360","MEAN_MOTION":15.30208288,"ECCENTRICITY":0.00012728,"INCLINATION":53.1615,"RA_OF_ASC_NODE":306.0675,"ARG_OF_PERICENTER":116.8249,"MEAN_ANOMALY":243.2882,"EPHEMERIS_TYPE":0,"CLASSIFICATION_TYPE":"U","NORAD_CAT_ID":58943,"ELEMENT_SET_NO":999,"REV_AT_EPOCH":11740,"BSTAR":-7.9707385e-5,"MEAN_MOTION_DOT":-2.72e-5,"MEAN_MOTION_DDOT":0}]
